start=new Date('2022-03-12T00:00:00.000Z').valueOf();
sats=[{"MEAN_ANOMALY":"283.3234","OBJECT_NAME":"STARLINK-1892","FILE":"3355378","OBJECT_ID":"2020-074E","APOAPSIS":"548.226","TLE_LINE2":"2 46743  53.0560  30.7050 0001476  76.7919 283.3234 15.06403182 76791","PERIOD":"95.592","BSTAR":"0.00014889000000","GP_ID":"198518830","CENTER_NAME":"EARTH","SITE":"AFETR","RA_OF_ASC_NODE":"30.7050","REF_FRAME":"TEME","INCLINATION":"53.0560","SEMIMAJOR_AXIS":"6925.339","PERIAPSIS":"546.182","LAUNCH_DATE":"2020-10-24","MEAN_MOTION_DOT":"0.00001937","MEAN_MOTION":"15.06403182","TLE_LINE1":"1 46743U 20074E   22070.82536411  .00001937  00000-0  14889-3 0  9991","NORAD_CAT_ID":"46743","COUNTRY_CODE":"US","TIME_SYSTEM":"UTC","ARG_OF_PERICENTER":"76.7919","DECAY_DATE":null,"EPHEMERIS_TYPE":"0","EPOCH":"2022-03-11T19:48:31.459104","MEAN_ELEMENT_THEORY":"SGP4","RCS_SIZE":"LARGE","REV_AT_EPOCH":"7679","MEAN_MOTION_DDOT":"0.0000000000000","CLASSIFICATION_TYPE":"U","ELEMENT_SET_NO":"999","OBJECT_TYPE":"PAYLOAD","ECCENTRICITY":"0.00014760"},{"RCS_SIZE":"LARGE","MEAN_ELEMENT_THEORY":"SGP4","REV_AT_EPOCH":"7675","MEAN_MOTION_DDOT":"0.0000000000000","CLASSIFICATION_TYPE":"U","ELEMENT_SET_NO":"999","OBJECT_TYPE":"PAYLOAD","ECCENTRICITY":"0.00019520","NORAD_CAT_ID":"46744","COUNTRY_CODE":"US","TIME_SYSTEM":"UTC","ARG_OF_PERICENTER":"47.2246","DECAY_DATE":null,"EPHEMERIS_TYPE":"0","EPOCH":"2022-03-11T13:52:55.434432","SEMIMAJOR_AXIS":"6925.326","PERIAPSIS":"545.839","LAUNCH_DATE":"2020-10-24","MEAN_MOTION_DOT":"0.00000405","TLE_LINE1":"1 46744U 20074F   22070.57841938  .00000405  00000-0  46098-4 0  9994","MEAN_MOTION":"15.06407413","MEAN_ANOMALY":"312.8907","OBJECT_NAME":"STARLINK-1894","FILE":"3355378","OBJECT_ID":"2020-074F","APOAPSIS":"548.543","BSTAR":"0.00004609800000","TLE_LINE2":"2 46744  53.0572  31.8147 0001952  47.2246 312.8907 15.06407413 76751","PERIOD":"95.592","GP_ID":"198519082","CENTER_NAME":"EARTH","SITE":"AFETR","RA_OF_ASC_NODE":"31.8147","REF_FRAME":"TEME","INCLINATION":"53.0572"},{"LAUNCH_DATE":"2020-10-24","MEAN_MOTION_DOT":"0.00003089","PERIAPSIS":"433.776","SEMIMAJOR_AXIS":"6817.753","MEAN_MOTION":"15.42200718","TLE_LINE1":"1 46745U 20074G   22070.54082787  .00003089  00000-0  80328-4 0  9996","APOAPSIS":"445.460","TLE_LINE2":"2 46745  53.0570   2.4462 0008569 278.1948  81.8084 15.42200718 77163","BSTAR":"0.00008032800000","PERIOD":"93.373","CENTER_NAME":"EARTH","GP_ID":"198519832","MEAN_ANOMALY":"81.8084","OBJECT_NAME":"STARLINK-1898","FILE":"3355378","OBJECT_ID":"2020-074G","RA_OF_ASC_NODE":"2.4462","REF_FRAME":"TEME","INCLINATION":"53.0570","SITE":"AFETR","REV_AT_EPOCH":"7716","MEAN_MOTION_DDOT":"0.0000000000000","RCS_SIZE":"LARGE","MEAN_ELEMENT_THEORY":"SGP4","OBJECT_TYPE":"PAYLOAD","ECCENTRICITY":"0.00085690","CLASSIFICATION_TYPE":"U","ELEMENT_SET_NO":"999","NORAD_CAT_ID":"46745","COUNTRY_CODE":"US","TIME_SYSTEM":"UTC","ARG_OF_PERICENTER":"278.1948","EPHEMERIS_TYPE":"0","EPOCH":"2022-03-11T12:58:47.527968","DECAY_DATE":null},{"OBJECT_TYPE":"PAYLOAD","ECCENTRICITY":"0.00019550","CLASSIFICATION_TYPE":"U","ELEMENT_SET_NO":"999","REV_AT_EPOCH":"7675","MEAN_MOTION_DDOT":"0.0000000000000","RCS_SIZE":"LARGE","MEAN_ELEMENT_THEORY":"SGP4","EPHEMERIS_TYPE":"0","EPOCH":"2022-03-11T14:14:09.144096","DECAY_DATE":null,"NORAD_CAT_ID":"46746","TIME_SYSTEM":"UTC","ARG_OF_PERICENTER":"57.2771","COUNTRY_CODE":"US","TLE_LINE1":"1 46746U 20074H   22070.59316139  .00000971  00000-0  84055-4 0  9991","MEAN_MOTION":"15.06402837","MEAN_MOTION_DOT":"0.00000971","LAUNCH_DATE":"2020-10-24","SEMIMAJOR_AXIS":"6925.340","PERIAPSIS":"545.851","INCLINATION":"53.0569","RA_OF_ASC_NODE":"31.7563","REF_FRAME":"TEME","SITE":"AFETR","APOAPSIS":"548.559","GP_ID":"198518081","CENTER_NAME":"EARTH","TLE_LINE2":"2 46746  53.0569  31.7563 0001955  57.2771 302.8406 15.06402837 76755","BSTAR":"0.00008405500000","PERIOD":"95.592","FILE":"3355378","OBJECT_NAME":"STARLINK-1905","MEAN_ANOMALY":"302.8406","OBJECT_ID":"2020-074H"},{"EPHEMERIS_TYPE":"0","EPOCH":"2022-03-11T07:25:27.823584","DECAY_DATE":null,"NORAD_CAT_ID":"46747","ARG_OF_PERICENTER":"56.5387","TIME_SYSTEM":"UTC","COUNTRY_CODE":"US","OBJECT_TYPE":"PAYLOAD","ECCENTRICITY":"0.00018800","CLASSIFICATION_TYPE":"U","ELEMENT_SET_NO":"999","REV_AT_EPOCH":"7671","MEAN_MOTION_DDOT":"0.0000000000000","MEAN_ELEMENT_THEORY":"SGP4","RCS_SIZE":"LARGE","INCLINATION":"53.0585","RA_OF_ASC_NODE":"33.0255","REF_FRAME":"TEME","SITE":"AFETR","APOAPSIS":"548.516","CENTER_NAME":"EARTH","GP_ID":"198483756","BSTAR":"0.00007525000000","TLE_LINE2":"2 46747  53.0585  33.0255 0001880  56.5387 303.5782 15.06400004 76714","PERIOD":"95.592","OBJECT_NAME":"STARLINK-1908","FILE":"3354959","MEAN_ANOMALY":"303.5782","OBJECT_ID":"2020-074J","TLE_LINE1":"1 46747U 20074J   22070.30934981  .00000839  00000-0  75250-4 0  9992","MEAN_MOTION":"15.06400004","MEAN_MOTION_DOT":"0.00000839","LAUNCH_DATE":"2020-10-24","PERIAPSIS":"545.912","SEMIMAJOR_AXIS":"6925.349"},{"LAUNCH_DATE":"2020-10-24","MEAN_MOTION_DOT":"0.00001098","PERIAPSIS":"546.087","SEMIMAJOR_AXIS":"6925.328","MEAN_MOTION":"15.06406769","TLE_LINE1":"1 46748U 20074K   22070.58209902  .00001098  00000-0  92588-4 0  9992","APOAPSIS":"548.299","TLE_LINE2":"2 46748  53.0564  31.8115 0001597  54.5257 305.5881 15.06406769 76752","BSTAR":"0.00009258800000","PERIOD":"95.592","CENTER_NAME":"EARTH","GP_ID":"198519582","MEAN_ANOMALY":"305.5881","FILE":"3355378","OBJECT_NAME":"STARLINK-1910","OBJECT_ID":"2020-074K","REF_FRAME":"TEME","RA_OF_ASC_NODE":"31.8115","INCLINATION":"53.0564","SITE":"AFETR","REV_AT_EPOCH":"7675","MEAN_MOTION_DDOT":"0.0000000000000","MEAN_ELEMENT_THEORY":"SGP4","RCS_SIZE":"LARGE","OBJECT_TYPE":"PAYLOAD","ECCENTRICITY":"0.00015970","CLASSIFICATION_TYPE":"U","ELEMENT_SET_NO":"999","NORAD_CAT_ID":"46748","COUNTRY_CODE":"US","ARG_OF_PERICENTER":"54.5257","TIME_SYSTEM":"UTC","EPHEMERIS_TYPE":"0","EPOCH":"2022-03-11T13:58:13.355328","DECAY_DATE":null},{"DECAY_DATE":null,"EPOCH":"2022-03-11T22:06:31.677408","EPHEMERIS_TYPE":"0","COUNTRY_CODE":"US","ARG_OF_PERICENTER":"64.9687","TIME_SYSTEM":"UTC","NORAD_CAT_ID":"46749","ELEMENT_SET_NO":"999","CLASSIFICATION_TYPE":"U","ECCENTRICITY":"0.00015900","OBJECT_TYPE":"PAYLOAD","MEAN_ELEMENT_THEORY":"SGP4","RCS_SIZE":"LARGE","MEAN_MOTION_DDOT":"0.0000000000000","REV_AT_EPOCH":"7680","SITE":"AFETR","REF_FRAME":"TEME","RA_OF_ASC_NODE":"30.2903","INCLINATION":"53.0557","OBJECT_ID":"2020-074L","MEAN_ANOMALY":"295.1467","OBJECT_NAME":"STARLINK-1911","FILE":"3355378","PERIOD":"95.590","TLE_LINE2":"2 46749  53.0557  30.2903 0001590  64.9687 295.1467 15.06428364 76803","BSTAR":"0.00094097000000","GP_ID":"198519333","CENTER_NAME":"EARTH","APOAPSIS":"548.228","MEAN_MOTION":"15.06428364","TLE_LINE1":"1 46749U 20074L   22070.92119997  .00013773  00000-0  94097-3 0  9994","PERIAPSIS":"546.026","SEMIMAJOR_AXIS":"6925.262","LAUNCH_DATE":"2020-10-24","MEAN_MOTION_DOT":"0.00013773"},{"MEAN_ANOMALY":"300.6776","FILE":"3355378","OBJECT_NAME":"STARLINK-1920","OBJECT_ID":"2020-074N","APOAPSIS":"548.263","TLE_LINE2":"2 46751  53.0551  31.7918 0001622  59.4373 300.6776 15.06424127 76751","BSTAR":"0.00047351000000","PERIOD":"95.591","GP_ID":"198518581","CENTER_NAME":"EARTH","SITE":"AFETR","RA_OF_ASC_NODE":"31.7918","REF_FRAME":"TEME","INCLINATION":"53.0551","PERIAPSIS":"546.016","SEMIMAJOR_AXIS":"6925.275","LAUNCH_DATE":"2020-10-24","MEAN_MOTION_DOT":"0.00006783","TLE_LINE1":"1 46751U 20074N   22070.58577839  .00006783  00000-0  47351-3 0  9996","MEAN_MOTION":"15.06424127","NORAD_CAT_ID":"46751","COUNTRY_CODE":"US","TIME_SYSTEM":"UTC","ARG_OF_PERICENTER":"59.4373","DECAY_DATE":null,"EPHEMERIS_TYPE":"0","EPOCH":"2022-03-11T14:03:31.252896","MEAN_ELEMENT_THEORY":"SGP4","RCS_SIZE":"LARGE","REV_AT_EPOCH":"7675","MEAN_MOTION_DDOT":"0.0000000000000","CLASSIFICATION_TYPE":"U","ELEMENT_SET_NO":"999","OBJECT_TYPE":"PAYLOAD","ECCENTRICITY":"0.00016220"},{"COUNTRY_CODE":"US","ARG_OF_PERICENTER":"52.8147","TIME_SYSTEM":"UTC","NORAD_CAT_ID":"46752","EPOCH":"2022-03-11T06:21:45.628416","EPHEMERIS_TYPE":"0","DECAY_DATE":null,"MEAN_MOTION_DDOT":"0.0000000000000","REV_AT_EPOCH":"7670","RCS_SIZE":"LARGE","MEAN_ELEMENT_THEORY":"SGP4","ECCENTRICITY":"0.00018300","OBJECT_TYPE":"PAYLOAD","ELEMENT_SET_NO":"999","CLASSIFICATION_TYPE":"U","BSTAR":"0.00029580000000","TLE_LINE2":"2 46752  53.0543  33.2239 0001830  52.8147 307.3009 15.06410694 76705","PERIOD":"95.591","CENTER_NAME":"EARTH","GP_ID":"198483257","APOAPSIS":"548.448","OBJECT_ID":"2020-074P","MEAN_ANOMALY":"307.3009","OBJECT_NAME":"STARLINK-1921","FILE":"3354959","REF_FRAME":"TEME","RA_OF_ASC_NODE":"33.2239","INCLINATION":"53.0543","SITE":"AFETR","LAUNCH_DATE":"2020-10-24","MEAN_MOTION_DOT":"0.00004128","SEMIMAJOR_AXIS":"6925.316","PERIAPSIS":"545.913","MEAN_MOTION":"15.06410694","TLE_LINE1":"1 46752U 20074P   22070.26511144  .00004128  00000-0  29580-3 0  9994"},{"APOAPSIS":"548.394","GP_ID":"198484007","CENTER_NAME":"EARTH","PERIOD":"95.591","TLE_LINE2":"2 46753  53.0562  33.0724 0001774  63.2195 296.8976 15.06415616 76715","BSTAR":"0.00024043000000","OBJECT_NAME":"STARLINK-1922","FILE":"3354959","MEAN_ANOMALY":"296.8976","OBJECT_ID":"2020-074Q","INCLINATION":"53.0562","RA_OF_ASC_NODE":"33.0724","REF_FRAME":"TEME","SITE":"AFETR","MEAN_MOTION_DOT":"0.00003303","LAUNCH_DATE":"2020-10-24","SEMIMAJOR_AXIS":"6925.301","PERIAPSIS":"545.937","TLE_LINE1":"1 46753U 20074Q   22070.29827639  .00003303  00000-0  24043-3 0  9990","MEAN_MOTION":"15.06415616","NORAD_CAT_ID":"46753","ARG_OF_PERICENTER":"63.2195","TIME_SYSTEM":"UTC","COUNTRY_CODE":"US","EPHEMERIS_TYPE":"0","EPOCH":"2022-03-11T07:09:31.080096","DECAY_DATE":null,"REV_AT_EPOCH":"7671","MEAN_MOTION_DDOT":"0.0000000000000","RCS_SIZE":"LARGE","MEAN_ELEMENT_THEORY":"SGP4","OBJECT_TYPE":"PAYLOAD","ECCENTRICITY":"0.00017740","CLASSIFICATION_TYPE":"U","ELEMENT_SET_NO":"999"}];
